SPACEBEE-58             
1 47464U 21006BD  22249.12777372  .00030269  00000+0  11646-2 0  9998
2 47464  97.4377 310.1036 0009475 355.4146   4.7004 15.26296093 89714
SPACEBEE-57             
1 47465U 21006BE  22249.14655098  .00008429  00000+0  44435-3 0  9997
2 47465  97.4317 305.4644 0005798  35.8411 324.3210 15.15805866 89430
SPACEBEE-44             
1 47466U 21006BF  22249.41679807  .00022935  00000+0  98341-3 0  9995
2 47466  97.4349 307.7955 0004613  21.8343 338.3089 15.22740680 89608
SPACEBEE-56             
1 47468U 21006BH  22249.40724359  .00021767  00000+0  94807-3 0  9994
2 47468  97.4355 307.6867 0004877  20.5275 339.6157 15.22216320 89597
SPACEBEE-45             
1 47470U 21006BK  22249.15573272  .00024454  00000+0  10526-2 0  9996
2 47470  97.4352 307.5715 0004879  22.5729 337.5722 15.22595205 89560
SPACEBEE-43             
1 47480U 21006BV  22249.14824585  .00025414  00000+0  10859-2 0  9998
2 47480  97.4347 307.5335 0004666  21.6133 338.5300 15.22837818 89568
SPACEBEE-87             
1 47703U 21015E   22249.17534538  .00058317  00000+0  13997-2 0  9999
2 47703  97.4104 327.4171 0007825 144.6199 215.5568 15.41139458 84677
SPACEBEE-86             
1 47704U 21015F   22249.15259536  .00063331  00000+0  14681-2 0  9993
2 47704  97.4091 327.5643 0007965 141.7103 218.4711 15.42164357 84664
SPACEBEE-85             
1 47705U 21015G   22249.46842229  .00058094  00000+0  13397-2 0  9998
2 47705  97.4091 327.9041 0007598 142.5688 217.6090 15.42347737 84734
SPACEBEE-84             
1 47706U 21015H   22249.19197527  .00066984  00000+0  15341-2 0  9991
2 47706  97.4089 327.6603 0007785 143.8052 216.3724 15.42513120 84696
SPACEBEE-83             
1 47707U 21015J   22249.18376958  .00068459  00000+0  15464-2 0  9993
2 47707  97.4073 327.6491 0007100 146.4835 213.6863 15.42925024 84698
SPACEBEE-82             
1 47708U 21015K   22249.14721816  .00071700  00000+0  15662-2 0  9990
2 47708  97.4077 327.8399 0007653 145.0111 215.1642 15.43906299 84705
SPACEBEE-81             
1 47709U 21015L   22249.16352324  .00076535  00000+0  16341-2 0  9993
2 47709  97.4083 327.9873 0007529 144.5816 215.5934 15.44563158 84633
SPACEBEE-78             
1 47710U 21015M   22249.13498051  .00088081  00000+0  17946-2 0  9991
2 47710  97.4078 328.1758 0007227 147.1588 213.0112 15.45895884 84720
SPACEBEE-76             
1 47711U 21015N   22249.18839428  .00094850  00000+0  18119-2 0  9998
2 47711  97.4075 328.5525 0006913 148.1893 211.9776 15.47747467 84756
SPACEBEE-80             
1 47712U 21015P   22249.19078685  .00079450  00000+0  16647-2 0  9993
2 47712  97.4086 328.1019 0007166 147.0779 213.0918 15.45109318 84728
SPACEBEE-77             
1 47714U 21015Q   22249.16110823  .00092123  00000+0  17866-2 0  9999
2 47714  97.4079 328.4492 0007085 146.5206 213.6493 15.47319403 84666
SPACEBEE-79             
1 47715U 21015R   22249.21109904  .00076912  00000+0  16238-2 0  9994
2 47715  97.4116 328.1597 0007068 146.2113 213.9587 15.44896945 84729
SPACEBEE-65             
1 48626U 21006ES  22249.36316708  .00028507  00000+0  10867-2 0  9993
2 48626  97.2021 294.7994 0009861 335.6945  24.3828 15.26610342 89736
SPACEBEE-64             
1 48627U 21006ET  22249.08192436  .00030311  00000+0  11486-2 0  9997
2 48627  97.2023 294.5705 0009907 335.9759  24.1017 15.26795588 89693
SPACEBEE-66             
1 48628U 21006EU  22249.07698079  .00028320  00000+0  10936-2 0  9997
2 48628  97.2024 294.4248 0010110 337.4867  22.5927 15.26180263 89680
SPACEBEE-67             
1 48629U 21006EV  22249.09224932  .00027700  00000+0  10749-2 0  9996
2 48629  97.2022 294.4051 0010262 337.8271  22.2522 15.26020045 89681
SPACEBEE-68             
1 48630U 21006EW  22249.04848006  .00026956  00000+0  10517-2 0  9992
2 48630  97.2021 294.3147 0010307 338.2756  21.8044 15.25845300 89671
SPACEBEE-69             
1 48631U 21006EX  22249.13462924  .00027501  00000+0  10789-2 0  9992
2 48631  97.2023 294.3570 0010357 337.7817  22.2972 15.25656866 89684
SPACEBEE-70             
1 48632U 21006EY  22249.09416443  .00026004  00000+0  10257-2 0  9990
2 48632  97.2022 294.2593 0010629 338.0806  21.9977 15.25484144 89670
SPACEBEE-71             
1 48633U 21006EZ  22249.12517039  .00025260  00000+0  10031-2 0  9991
2 48633  97.2021 294.2154 0010803 338.3466  21.7315 15.25263047 89673
SPACEBEE-72             
1 48634U 21006FA  22249.10471215  .00023797  00000+0  95575-3 0  9995
2 48634  97.2021 294.0995 0011295 338.1127  21.9628 15.24890764 89662
SPACEBEE-73             
1 48635U 21006FB  22249.06371554  .00024374  00000+0  98328-3 0  9997
2 48635  97.2024 294.0067 0011306 339.2621  20.8157 15.24736542 89657
SPACEBEE-74             
1 48636U 21006FC  22249.12267974  .00023352  00000+0  95573-3 0  9999
2 48636  97.2024 293.9312 0011660 339.6777  20.3995 15.24256922 89652
SPACEBEE-75             
1 48637U 21006FD  22249.09806513  .00021634  00000+0  89311-3 0  9998
2 48637  97.2022 293.8108 0012072 339.7071  20.3686 15.23976141 89646
SPACEBEENZ-10           
1 48882U 21059D   22249.31710742  .00017223  00000+0  81497-3 0  9997
2 48882  97.5602  19.1030 0007914 180.8951 179.2270 15.19401490 66226
SPACEBEE-100            
1 48883U 21059E   22249.30704990  .00011192  00000+0  57045-3 0  9996
2 48883  97.5635  18.5704 0008594 176.1103 184.0199 15.16906547 66185
SPACEBEE-101            
1 48884U 21059F   22249.32081891  .00010821  00000+0  55445-3 0  9997
2 48884  97.5634  18.5597 0008301 179.6400 180.4841 15.16730880 66188
SPACEBEE-102            
1 48886U 21059H   22249.30904657  .00010775  00000+0  55075-3 0  9998
2 48886  97.5638  18.5752 0008225 179.1702 180.9546 15.16820018 66182
SPACEBEENZ-9            
1 48887U 21059J   22249.31815310  .00017683  00000+0  83669-3 0  9992
2 48887  97.5604  19.0983 0007968 180.1390 179.9843 15.19397163 66222
SPACEBEE-103            
1 48888U 21059K   22249.34010132  .00010055  00000+0  51080-3 0  9993
2 48888  97.5640  18.6932 0008584 176.3739 183.7558 15.17053436 66193
SPACEBEENZ-7            
1 48889U 21059L   22249.34412435  .00016488  00000+0  77640-3 0  9992
2 48889  97.5624  19.3317 0008509 179.5537 180.5707 15.19576792 66232
SPACEBEE-104            
1 48890U 21059M   22249.10483603  .00011635  00000+0  58948-3 0  9992
2 48890  97.5635  18.3619 0008415 180.5025 179.6201 15.17106383 66152
SPACEBEENZ-8            
1 48891U 21059N   22249.34935349  .00016444  00000+0  77629-3 0  9998
2 48891  97.5626  19.3246 0008517 179.0551 181.0701 15.19490084 66237
SPACEBEE-106            
1 48893U 21059Q   22249.33773002  .00009577  00000+0  48830-3 0  9996
2 48893  97.5656  18.8020 0008960 179.1009 181.0242 15.16933603 66198
SPACEBEE-107            
1 48894U 21059R   22249.36185726  .00011424  00000+0  57378-3 0  9991
2 48894  97.5662  18.9276 0008827 177.9446 182.1825 15.17413411 66205
SPACEBEE-108            
1 48895U 21059S   22249.33468667  .00009813  00000+0  50045-3 0  9990
2 48895  97.5651  18.7857 0009063 178.5879 181.5381 15.16917698 66190
SPACEBEE-105            
1 48896U 21059T   22249.32196805  .00011862  00000+0  60259-3 0  9997
2 48896  97.5637  18.5325 0008755 170.4854 189.6547 15.17006238 66186
SPACEBEE-109            
1 48897U 21059U   22249.30900485  .00012192  00000+0  61466-3 0  9991
2 48897  97.5657  18.8145 0009180 177.8655 182.2619 15.17262467 66193
SPACEBEE-110            
1 48899U 21059W   22249.31062368  .00011891  00000+0  59460-3 0  9999
2 48899  97.5660  18.9964 0009319 176.2087 183.9218 15.17555941 66202
SPACEBEE-111            
1 48904U 21059AB  22249.36648677  .00011730  00000+0  57996-3 0  9998
2 48904  97.5668  19.2660 0010219 175.8869 184.2450 15.17945419 66225
SPACEBEE-92             
1 48932U 21059BF  22249.36850882  .00037862  00000+0  13792-2 0  9991
2 48932  97.5510  21.5752 0013725 174.8925 185.2456 15.28010654 66411
SPACEBEE-89             
1 48933U 21059BG  22249.34127347  .00041867  00000+0  14745-2 0  9992
2 48933  97.5505  21.7433 0013583 175.0371 185.1006 15.29095112 66428
SPACEBEE-96             
1 48934U 21059BH  22249.30805165  .00036473  00000+0  13598-2 0  9992
2 48934  97.5516  21.3616 0014027 174.7810 185.3577 15.27249320 66399
SPACEBEE-88             
1 48935U 21059BJ  22249.32342174  .00043966  00000+0  15353-2 0  9997
2 48935  97.5493  21.7433 0013516 174.7220 185.4165 15.29362094 66426
SPACEBEE-99             
1 48936U 21059BK  22249.36840078  .00033396  00000+0  12730-2 0  9990
2 48936  97.5524  21.3002 0014121 174.6669 185.4722 15.26532887 66390
SPACEBEE-94             
1 48937U 21059BL  22249.33169453  .00036528  00000+0  13457-2 0  9996
2 48937  97.5507  21.4564 0013891 175.0047 185.1333 15.27645209 66405
SPACEBEE-93             
1 48939U 21059BN  22249.31375751  .00041000  00000+0  14601-2 0  9999
2 48939  97.5505  21.6281 0013657 176.0432 184.0917 15.28735404 66417
SPACEBEE-91             
1 48940U 21059BP  22249.36610706  .00041193  00000+0  14643-2 0  9997
2 48940  97.5508  21.7157 0013595 175.0257 185.1120 15.28795361 66427
SPACEBEE-95             
1 48945U 21059BU  22249.30971772  .00038074  00000+0  13905-2 0  9993
2 48945  97.5518  21.5146 0013726 175.3542 184.7826 15.27924443 66405
SPACEBEE-97             
1 48946U 21059BV  22249.33219555  .00032624  00000+0  12294-2 0  9996
2 48946  97.5520  21.3343 0014179 174.9723 185.1661 15.26917938 66395
SPACEBEE-90             
1 48947U 21059BW  22249.35445904  .00041650  00000+0  14741-2 0  9996
2 48947  97.5504  21.7271 0013609 174.8536 185.2846 15.28935309 66424
SPACEBEE-98             
1 48949U 21059BY  22249.32917724  .00034977  00000+0  13146-2 0  9991
2 48949  97.5529  21.3715 0013945 175.5170 184.6196 15.26993233 66392
SPACEBEE-121            
1 52009U 22026B   22249.53450657  .00011472  00000+0  58618-3 0  9997
2 52009  97.5048 248.4709 0026211 358.8744   1.2426 15.16537244 26478
SPACEBEE-114            
1 52010U 22026C   22249.52718399  .00010839  00000+0  55044-3 0  9994
2 52010  97.5074 248.5243 0025501   0.3792 359.7456 15.16784785 26485
